STARLINK-4732           
1 53870U 22114BE  24262.08771362  .00001481  00000+0  11108-3 0  9990
2 53870  53.2161 157.4424 0001616 101.3810 258.7363 15.08852775112239
STARLINK-4740           
1 53871U 22114BF  24262.12446967  .00000678  00000+0  60669-4 0  9990
2 53871  53.2159 156.9624 0001436  95.5871 264.5285 15.08853719112242
STARLINK-5028           
1 53886U 22119A   24262.16687039  .00000521  00000+0  50826-4 0  9993
2 53886  53.2155 217.3829 0001643  94.7448 265.3731 15.08843885110116
STARLINK-5029           
1 53887U 22119B   24262.28828680  .00004156  00000+0  27886-3 0  9993
2 53887  53.2156 216.7183 0001406 103.1204 256.9945 15.08865629110557
STARLINK-5034           
1 53888U 22119C   24262.29566486  .00000252  00000+0  33929-4 0  9997
2 53888  53.2166 216.7663 0001640 108.2510 251.8661 15.08841924110559
STARLINK-5031           
1 53889U 22119D   24262.29198223  .00001464  00000+0  11000-3 0  9999
2 53889  53.2139 216.7465 0001231  65.1886 294.9235 15.08854100110558
STARLINK-5050           
1 53890U 22119E   24262.18660032  .00013549  00000+0  86705-3 0  9992
2 53890  53.2158 181.8476 0001300 109.1892 250.9240 15.08867960111038
STARLINK-5041           
1 53891U 22119F   24262.28460695  .00002522  00000+0  17644-3 0  9992
2 53891  53.2149 216.6967 0001523  96.2802 263.8364 15.08851612110558
STARLINK-5046           
1 53892U 22119G   24262.19994260  .00005778  00000+0  38064-3 0  9998
2 53892  53.2144 216.8793 0001484  91.4282 268.6880 15.08856028110549
STARLINK-5052           
1 53893U 22119H   24262.14571886  .00002013  00000+0  14449-3 0  9999
2 53893  53.2154 217.2477 0001612 103.6848 256.4324 15.08848087110119
STARLINK-5043           
1 53894U 22119J   24262.28092587  .00002816  00000+0  19487-3 0  9999
2 53894  53.2146 216.6719 0001508 100.6001 259.5161 15.08850011110556
STARLINK-5032           
1 53895U 22119K   24262.26986981  .00000474  00000+0  47843-4 0  9994
2 53895  53.2147 216.6053 0001402  93.9960 266.1192 15.08846971110558
STARLINK-5037           
1 53896U 22119L   24262.19627312 -.00000589  00000+0 -18915-4 0  9994
2 53896  53.2160 216.8612 0001669  89.5070 270.6113 15.08840443110545
STARLINK-5035           
1 53897U 22119M   24262.14476057  .00010257  00000+0  66145-3 0  9996
2 53897  53.2148 217.2442 0001392 100.4202 259.6947 15.08847672110533
STARLINK-5044           
1 53898U 22119N   24262.25145557 -.00002131  00000+0 -11583-3 0  9997
2 53898  53.2164 216.4953 0001467  91.4027 268.7134 15.08847281110554
STARLINK-5042           
1 53899U 22119P   24262.25512889  .00001954  00000+0  14079-3 0  9997
2 53899  53.2148 216.5172 0001461  88.1465 271.9694 15.08851706110558
STARLINK-5045           
1 53900U 22119Q   24262.24406108  .00004700  00000+0  31294-3 0  9995
2 53900  53.2150 216.4460 0001445 100.7002 259.4153 15.08869464110554
STARLINK-5024           
1 53901U 22119R   24262.19258643 -.00003602  00000+0 -20839-3 0  9994
2 53901  53.2149 216.8344 0001481  85.9398 274.1764 15.08827095110545
STARLINK-5021           
1 53902U 22119S   24261.98004941 -.00000942  00000+0 -41096-4 0  9994
2 53902  53.2165 167.7502 0001837 121.5072 238.6099 15.08848041111210
STARLINK-5022           
1 53903U 22119T   24262.19353657 -.00000248  00000+0  25022-5 0  9990
2 53903  53.2160 216.8409 0001511  94.8614 265.2551 15.08847924110544
STARLINK-4787           
1 53904U 22119U   24262.17416877  .00021761  00000+0  13804-2 0  9997
2 53904  53.2153 216.7227 0001482  95.4503 264.6659 15.08859536110549
STARLINK-5003           
1 53905U 22119V   24262.23034540  .00000974  00000+0  79263-4 0  9994
2 53905  53.2166 207.0907 0001410  91.9010 268.2144 15.08849320110681
STARLINK-5054           
1 53906U 22119W   24262.11620608 -.00000046  00000+0  15180-4 0  9997
2 53906  53.2154 207.0942 0001523  95.2738 264.8428 15.08847779110679
STARLINK-5063           
1 53907U 22119X   24262.10430436 -.00002449  00000+0 -13575-3 0  9990
2 53907  53.2144 217.6828 0001638  97.7224 262.3954 15.08857869110525
STARLINK-5057           
1 53908U 22119Y   24262.09049747  .00000784  00000+0  67332-4 0  9999
2 53908  53.2166 207.6407 0001578  95.4036 264.7136 15.08845722110669
STARLINK-4796           
1 53909U 22119Z   24262.23404131 -.00000319  00000+0 -19657-5 0  9992
2 53909  53.2153 207.1126 0001530  83.4814 276.6353 15.08841775110687
STARLINK-5056           
1 53910U 22119AA  24262.24871161  .00109179  00000+0  55339-2 0  9992
2 53910  53.2126 205.8043 0006763 112.0797 248.0917 15.16079813110701
STARLINK-5048           
1 53911U 22119AB  24262.22666081  .00002171  00000+0  15441-3 0  9999
2 53911  53.2157 207.0723 0001566 104.6838 255.4328 15.08850425110686
STARLINK-5059           
1 53912U 22119AC  24262.24132123  .00000264  00000+0  34670-4 0  9994
2 53912  53.2151 206.4589 0001395  88.6944 271.4207 15.08847490110696
STARLINK-5053           
1 53913U 22119AD  24262.14200880 -.00000876  00000+0 -36943-4 0  9996
2 53913  53.2163 207.2467 0001454  91.5327 268.5831 15.08836503110253
STARLINK-5040           
1 53914U 22119AE  24262.27079171 -.00001013  00000+0 -45512-4 0  9994
2 53914  53.2161 206.6350 0001882 118.8955 241.2226 15.08848451110690
STARLINK-5017           
1 53915U 22119AF  24262.21929228  .00000567  00000+0  53731-4 0  9999
2 53915  53.2167 207.0212 0001449  93.6366 266.4792 15.08845371110688
STARLINK-5051           
1 53916U 22119AG  24262.16955837  .00000707  00000+0  62468-4 0  9992
2 53916  53.2172 186.8011 0001562 111.0052 249.1107 15.08850327110549
STARLINK-5036           
1 53917U 22119AH  24262.14569457 -.00000763  00000+0 -29886-4 0  9991
2 53917  53.2161 207.2696 0001419 101.2406 258.8746 15.08832861110257
STARLINK-5012           
1 53918U 22119AJ  24262.26710821  .00002152  00000+0  15322-3 0  9999
2 53918  53.2148 206.6064 0001725 104.5579 255.5605 15.08847983110699
STARLINK-5023           
1 53919U 22119AK  24262.13093811  .00002770  00000+0  19196-3 0  9998
2 53919  53.2163 207.1777 0001481  94.7355 265.3806 15.08858183110253
STARLINK-5025           
1 53920U 22119AL  24262.08409473 -.00002715  00000+0 -15261-3 0  9999
2 53920  53.2152 207.5894 0001522  79.5603 280.5560 15.08831742110663
STARLINK-5002           
1 53922U 22119AN  24262.25236742  .00000687  00000+0  61224-4 0  9992
2 53922  53.2157 206.5122 0001563 112.0482 248.0676 15.08851476110692
STARLINK-5004           
1 53923U 22119AP  24262.12725401  .00001258  00000+0  97072-4 0  9999
2 53923  53.2159 207.1542 0001559 116.8850 243.2302 15.08853788110673
STARLINK-5001           
1 53924U 22119AQ  24262.33196484  .00004524  00000+0  30205-3 0  9999
2 53924  53.2152 201.3172 0001387  92.5921 267.5230 15.08854433110778
STARLINK-5011           
1 53925U 22119AR  24262.17139556 -.00000459  00000+0 -10744-4 0  9991
2 53925  53.2149 206.7339 0001461  89.0189 271.0971 15.08841395110268
STARLINK-5014           
1 53926U 22119AS  24262.25467069  .00003484  00000+0  23678-3 0  9992
2 53926  53.2164 201.5399 0001600  96.7010 263.4165 15.08852847110778
STARLINK-5008           
1 53927U 22119AT  24262.27096305  .00065732  00000+0  35658-2 0  9990
2 53927  53.2149 200.9700 0007947  88.2714 271.9191 15.13947302110778
STARLINK-5009           
1 53928U 22119AU  24262.19810675  .00000717  00000+0  63096-4 0  9997
2 53928  53.2164 196.9158 0001441  91.8051 268.3107 15.08847859110827
STARLINK-5018           
1 53929U 22119AV  24262.17980137  .00004907  00000+0  32607-3 0  9995
2 53929  53.2149 207.4686 0001588  90.3538 269.7636 15.08853605110672
STARLINK-5010           
1 53930U 22119AW  24262.24960860  .00000330  00000+0  38797-4 0  9999
2 53930  53.2166 196.5213 0001397 104.3559 255.7588 15.08847359110832
STARLINK-5015           
1 53931U 22119AX  24262.24084978  .00002135  00000+0  15215-3 0  9991
2 53931  53.2168 191.4844 0001483 104.9392 255.1765 15.08856009110907
STARLINK-4772           
1 53932U 22119AY  24262.21514585  .00001021  00000+0  82224-4 0  9999
2 53932  53.2159 192.0236 0001189 106.5034 253.6089 15.08853232110901
STARLINK-4782           
1 53933U 22119AZ  24262.19442601  .00000087  00000+0  23541-4 0  9994
2 53933  53.2161 196.8895 0001525  91.6673 268.4494 15.08847648110408
STARLINK-4775           
1 53934U 22119BA  24262.21146048  .00004710  00000+0  31368-3 0  9996
2 53934  53.2157 191.9984 0001631 115.1154 245.0008 15.08858591110910
STARLINK-5000           
1 53935U 22119BB  24262.06148006  .00000406  00000+0  43564-4 0  9996
2 53935  53.2145 182.5053 0001252  90.9446 269.1690 15.08852781111015
STARLINK-4791           
1 53936U 22119BC  24262.18199952 -.00001644  00000+0 -85232-4 0  9991
2 53936  53.2164 191.8208 0001530  94.8684 265.2483 15.08830306110473
STARLINK-4765           
1 53937U 22119BD  24262.06656190 -.00004050  00000+0 -23655-3 0  9995
2 53937  53.2146 187.5418 0001471  84.7529 275.3631 15.08832723110943
STARLINK-4633           
1 53964U 22125A   24261.91110520 -.00001776  00000+0 -93530-4 0  9999
2 53964  53.2149 118.4583 0001524  97.1918 262.9247 15.08833827108130
STARLINK-4578           
1 53965U 22125B   24261.84213878  .00000663  00000+0  59707-4 0  9992
2 53965  53.2151 118.7380 0001471  94.3787 265.7373 15.08845043108129
STARLINK-4635           
1 53966U 22125C   24261.83749716 -.00000077  00000+0  13224-4 0  9991
2 53966  53.2155 118.7072 0001363 102.3087 257.8058 15.08841324108125
STARLINK-4634           
1 53967U 22125D   24261.83381054  .00001738  00000+0  12726-3 0  9998
2 53967  53.2163 118.6867 0001871 114.7151 245.4036 15.08843295108127
STARLINK-4629           
1 53968U 22125E   24261.88899335  .00001441  00000+0  10861-3 0  9999
2 53968  53.2160 118.3174 0001666  89.4661 270.6522 15.08846597108138
STARLINK-4468           
1 53969U 22125F   24262.55876956  .00000195  00000+0  30373-4 0  9995
2 53969  53.2157 115.3981 0001446 100.4817 259.6338 15.08837988108306
